{
  "links" : {
    "next" : "https://api.nasa.gov/neo/rest/v1/feed?start_date=2013-05-09&end_date=2013-05-09&detailed=true&api_key=t0TVs3DtDT2H8Oy2Zy8m2eVrNsAVKAexjcZXUckd",
    "prev" : "https://api.nasa.gov/neo/rest/v1/feed?start_date=2013-05-07&end_date=2013-05-07&detailed=true&api_key=t0TVs3DtDT2H8Oy2Zy8m2eVrNsAVKAexjcZXUckd",
    "self" : "https://api.nasa.gov/neo/rest/v1/feed?start_date=2013-05-08&end_date=2013-05-08&detailed=true&api_key=t0TVs3DtDT2H8Oy2Zy8m2eVrNsAVKAexjcZXUckd"
  },
  "element_count" : 5,
  "near_earth_objects" : {
    "2013-05-08" : [ {
      "links" : {
        "self" : "https://api.nasa.gov/neo/rest/v1/neo/3644231?api_key=t0TVs3DtDT2H8Oy2Zy8m2eVrNsAVKAexjcZXUckd"
      },
      "neo_reference_id" : "3644231",
      "name" : "(2013 MW6)",
      "nasa_jpl_url" : "http://ssd.jpl.nasa.gov/sbdb.cgi?sstr=3644231",
      "absolute_magnitude_h" : 19.8,
      "estimated_diameter" : {
        "kilometers" : {
          "estimated_diameter_min" : 0.2914439045,
          "estimated_diameter_max" : 0.6516883822
        },
        "meters" : {
          "estimated_diameter_min" : 291.4439045349,
          "estimated_diameter_max" : 651.6883821679
        },
        "miles" : {
          "estimated_diameter_min" : 0.1810947904,
          "estimated_diameter_max" : 0.4049402617
        },
        "feet" : {
          "estimated_diameter_min" : 956.1808197541,
          "estimated_diameter_max" : 2138.0853117517
        }
      },
      "is_potentially_hazardous_asteroid" : true,
      "close_approach_data" : [ {
        "close_approach_date" : "2013-05-08",
        "epoch_date_close_approach" : 1367996400000,
        "relative_velocity" : {
          "kilometers_per_second" : "9.3262381398",
          "kilometers_per_hour" : "33574.4573033419",
          "miles_per_hour" : "20861.8620949571"
        },
        "miss_distance" : {
          "astronomical" : "0.0902949092",
          "lunar" : "35.1247215271",
          "kilometers" : "13507927",
          "miles" : "8393437"
        },
        "orbiting_body" : "Earth"
      } ],
      "orbital_data" : {
        "orbit_id" : "12",
        "orbit_determination_date" : "2017-04-06 08:45:31",
        "orbit_uncertainty" : "3",
        "minimum_orbit_intersection" : ".0496282",
        "jupiter_tisserand_invariant" : "4.008",
        "epoch_osculation" : "2458000.5",
        "eccentricity" : ".4844273928078038",
        "semi_major_axis" : "1.732838509341859",
        "inclination" : "5.520537879196189",
        "ascending_node_longitude" : ".8347138586626798",
        "orbital_period" : "833.1737203110989",
        "perihelion_distance" : ".8934040681044211",
        "perihelion_argument" : "191.0918499427082",
        "aphelion_distance" : "2.572272950579297",
        "perihelion_time" : "2458059.963785724596",
        "mean_anomaly" : "334.3067233891376",
        "mean_motion" : ".4320827592420696",
        "equinox" : "J2000"
      }
    }, {
      "links" : {
        "self" : "https://api.nasa.gov/neo/rest/v1/neo/3763944?api_key=t0TVs3DtDT2H8Oy2Zy8m2eVrNsAVKAexjcZXUckd"
      },
      "neo_reference_id" : "3763944",
      "name" : "(2016 WY)",
      "nasa_jpl_url" : "http://ssd.jpl.nasa.gov/sbdb.cgi?sstr=3763944",
      "absolute_magnitude_h" : 29.4,
      "estimated_diameter" : {
        "kilometers" : {
          "estimated_diameter_min" : 0.0035039264,
          "estimated_diameter_max" : 0.0078350176
        },
        "meters" : {
          "estimated_diameter_min" : 3.5039264111,
          "estimated_diameter_max" : 7.8350176433
        },
        "miles" : {
          "estimated_diameter_min" : 0.0021772383,
          "estimated_diameter_max" : 0.0048684527
        },
        "feet" : {
          "estimated_diameter_min" : 11.4958219265,
          "estimated_diameter_max" : 25.705439285
        }
      },
      "is_potentially_hazardous_asteroid" : false,
      "close_approach_data" : [ {
        "close_approach_date" : "2013-05-08",
        "epoch_date_close_approach" : 1367996400000,
        "relative_velocity" : {
          "kilometers_per_second" : "8.7385553397",
          "kilometers_per_hour" : "31458.7992227671",
          "miles_per_hour" : "19547.27443928"
        },
        "miss_distance" : {
          "astronomical" : "0.3013264815",
          "lunar" : "117.216003418",
          "kilometers" : "45077800",
          "miles" : "28010046"
        },
        "orbiting_body" : "Earth"
      } ],
      "orbital_data" : {
        "orbit_id" : "11",
        "orbit_determination_date" : "2017-04-06 08:22:06",
        "orbit_uncertainty" : "6",
        "minimum_orbit_intersection" : ".0040083",
        "jupiter_tisserand_invariant" : "6.940",
        "epoch_osculation" : "2458000.5",
        "eccentricity" : ".1732532216266498",
        "semi_major_axis" : ".8465819333192335",
        "inclination" : "1.900167220415758",
        "ascending_node_longitude" : "236.3703819156611",
        "orbital_period" : "284.5128728835478",
        "perihelion_distance" : ".6999088860007586",
        "perihelion_argument" : "2.225319050558626",
        "aphelion_distance" : ".9932549806377083",
        "perihelion_time" : "2458140.371138911477",
        "mean_anomaly" : "183.0181661103898",
        "mean_motion" : "1.265320603427843",
        "equinox" : "J2000"
      }
    } ]
  }
}